start=new Date('2023-04-23T00:00:00.000Z').valueOf();
sats=[{"ELEMENT_SET_NO":"999","TLE_LINE1":"1 45779U 20038BB  23112.50277865  .00016548  00000-0  76717-3 0  9999","SEMIMAJOR_AXIS":"6883.352","OBJECT_NAME":"STARLINK-1492","CENTER_NAME":"EARTH","LAUNCH_DATE":"2020-06-13","OBJECT_TYPE":"PAYLOAD","MEAN_MOTION_DOT":"0.00016548","PERIOD":"94.724","COUNTRY_CODE":"US","FILE":"3892285","MEAN_MOTION":"15.20207365","GP_ID":"230590640","TLE_LINE2":"2 45779  53.0526 229.9018 0002381 200.8158 159.2740 15.20207365158300","REF_FRAME":"TEME","REV_AT_EPOCH":"15830","EPHEMERIS_TYPE":"0","CLASSIFICATION_TYPE":"U","DECAY_DATE":null,"INCLINATION":"53.0526","NORAD_CAT_ID":"45779","ECCENTRICITY":"0.00023810","MEAN_ELEMENT_THEORY":"SGP4","MEAN_ANOMALY":"159.2740","BSTAR":"0.00076717000000","SITE":"AFETR","ARG_OF_PERICENTER":"200.8158","APOAPSIS":"506.856","TIME_SYSTEM":"UTC","RCS_SIZE":"LARGE","MEAN_MOTION_DDOT":"0.0000000000000","OBJECT_ID":"2020-038BB","EPOCH":"2023-04-22T12:04:00.075360","RA_OF_ASC_NODE":"229.9018","PERIAPSIS":"503.578"},{"APOAPSIS":"547.878","TIME_SYSTEM":"UTC","PERIAPSIS":"546.547","RA_OF_ASC_NODE":"238.6334","EPOCH":"2023-04-22T19:43:20.021664","MEAN_MOTION_DDOT":"0.0000000000000","RCS_SIZE":"LARGE","OBJECT_ID":"2020-038BC","NORAD_CAT_ID":"45780","DECAY_DATE":null,"INCLINATION":"53.0551","ECCENTRICITY":"0.00009610","CLASSIFICATION_TYPE":"U","ARG_OF_PERICENTER":"109.4010","MEAN_ANOMALY":"250.7083","MEAN_ELEMENT_THEORY":"SGP4","SITE":"AFETR","BSTAR":"0.00102140000000","MEAN_MOTION":"15.06400374","COUNTRY_CODE":"US","MEAN_MOTION_DOT":"0.00014965","PERIOD":"95.592","FILE":"3892285","REV_AT_EPOCH":"15820","EPHEMERIS_TYPE":"0","GP_ID":"230590890","TLE_LINE2":"2 45780  53.0551 238.6334 0000961 109.4010 250.7083 15.06400374158206","REF_FRAME":"TEME","SEMIMAJOR_AXIS":"6925.347","TLE_LINE1":"1 45780U 20038BC  23112.82175951  .00014965  00000-0  10214-2 0  9999","OBJECT_NAME":"STARLINK-1496","ELEMENT_SET_NO":"999","OBJECT_TYPE":"PAYLOAD","LAUNCH_DATE":"2020-06-13","CENTER_NAME":"EARTH"},{"OBJECT_TYPE":"PAYLOAD","LAUNCH_DATE":"2020-06-13","CENTER_NAME":"EARTH","TLE_LINE1":"1 45781U 20038BD  23112.84756054  .00013995  00000-0  95706-3 0  9993","SEMIMAJOR_AXIS":"6925.407","OBJECT_NAME":"STARLINK-1497","ELEMENT_SET_NO":"999","REV_AT_EPOCH":"15821","EPHEMERIS_TYPE":"0","TLE_LINE2":"2 45781  53.0524 238.5146 0001197  71.4577 288.6542 15.06380830158210","GP_ID":"230591640","REF_FRAME":"TEME","MEAN_MOTION":"15.06380830","PERIOD":"95.593","MEAN_MOTION_DOT":"0.00013995","COUNTRY_CODE":"US","FILE":"3892285","ARG_OF_PERICENTER":"71.4577","MEAN_ELEMENT_THEORY":"SGP4","MEAN_ANOMALY":"288.6542","BSTAR":"0.00095706000000","SITE":"AFETR","INCLINATION":"53.0524","DECAY_DATE":null,"NORAD_CAT_ID":"45781","ECCENTRICITY":"0.00011970","CLASSIFICATION_TYPE":"U","EPOCH":"2023-04-22T20:20:29.230656","RA_OF_ASC_NODE":"238.5146","PERIAPSIS":"546.443","RCS_SIZE":"LARGE","MEAN_MOTION_DDOT":"0.0000000000000","OBJECT_ID":"2020-038BD","APOAPSIS":"548.101","TIME_SYSTEM":"UTC"},{"ARG_OF_PERICENTER":"275.7172","BSTAR":"0.00046843000000","SITE":"AFETR","MEAN_ANOMALY":"84.3539","MEAN_ELEMENT_THEORY":"SGP4","ECCENTRICITY":"0.00024870","NORAD_CAT_ID":"45782","DECAY_DATE":null,"INCLINATION":"53.0478","CLASSIFICATION_TYPE":"U","PERIAPSIS":"501.958","EPOCH":"2023-04-22T20:05:14.023968","RA_OF_ASC_NODE":"228.0862","OBJECT_ID":"2020-038BE","MEAN_MOTION_DDOT":"0.0000000000000","RCS_SIZE":"LARGE","TIME_SYSTEM":"UTC","APOAPSIS":"505.381","OBJECT_TYPE":"PAYLOAD","LAUNCH_DATE":"2020-06-13","CENTER_NAME":"EARTH","OBJECT_NAME":"STARLINK-1498","SEMIMAJOR_AXIS":"6881.804","TLE_LINE1":"1 45782U 20038BE  23112.83696787  .00010123  00000-0  46843-3 0  9997","ELEMENT_SET_NO":"999","REV_AT_EPOCH":"15837","EPHEMERIS_TYPE":"0","REF_FRAME":"TEME","GP_ID":"230592390","TLE_LINE2":"2 45782  53.0478 228.0862 0002487 275.7172  84.3539 15.20720083158379","MEAN_MOTION":"15.20720083","FILE":"3892285","COUNTRY_CODE":"US","MEAN_MOTION_DOT":"0.00010123","PERIOD":"94.692"},{"DECAY_DATE":null,"NORAD_CAT_ID":"45783","INCLINATION":"53.0531","ECCENTRICITY":"0.00013180","CLASSIFICATION_TYPE":"U","ARG_OF_PERICENTER":"97.3983","MEAN_ANOMALY":"262.7156","MEAN_ELEMENT_THEORY":"SGP4","SITE":"AFETR","BSTAR":"0.00089191000000","APOAPSIS":"548.114","TIME_SYSTEM":"UTC","PERIAPSIS":"546.289","RA_OF_ASC_NODE":"239.4276","EPOCH":"2023-04-22T15:28:34.649472","MEAN_MOTION_DDOT":"0.0000000000000","RCS_SIZE":"LARGE","OBJECT_ID":"2020-038BF","TLE_LINE1":"1 45783U 20038BF  23112.64484548  .00013030  00000-0  89191-3 0  9990","SEMIMAJOR_AXIS":"6925.336","OBJECT_NAME":"STARLINK-1505","ELEMENT_SET_NO":"999","OBJECT_TYPE":"PAYLOAD","LAUNCH_DATE":"2020-06-13","CENTER_NAME":"EARTH","MEAN_MOTION":"15.06403951","COUNTRY_CODE":"US","PERIOD":"95.592","MEAN_MOTION_DOT":"0.00013030","FILE":"3892285","REV_AT_EPOCH":"15819","EPHEMERIS_TYPE":"0","TLE_LINE2":"2 45783  53.0531 239.4276 0001318  97.3983 262.7156 15.06403951158198","GP_ID":"230591140","REF_FRAME":"TEME"},{"ARG_OF_PERICENTER":"73.8856","MEAN_ANOMALY":"286.2262","MEAN_ELEMENT_THEORY":"SGP4","SITE":"AFETR","BSTAR":"0.00138390000000","NORAD_CAT_ID":"45784","DECAY_DATE":null,"INCLINATION":"53.0519","ECCENTRICITY":"0.00011770","CLASSIFICATION_TYPE":"U","PERIAPSIS":"546.339","EPOCH":"2023-04-22T02:07:05.860128","RA_OF_ASC_NODE":"241.9314","MEAN_MOTION_DDOT":"0.0000000000000","RCS_SIZE":"LARGE","OBJECT_ID":"2020-038BG","TIME_SYSTEM":"UTC","APOAPSIS":"547.969","OBJECT_TYPE":"PAYLOAD","CENTER_NAME":"EARTH","LAUNCH_DATE":"2020-06-13","TLE_LINE1":"1 45784U 20038BG  23112.08826227  .00020403  00000-0  13839-2 0  9990","SEMIMAJOR_AXIS":"6925.289","OBJECT_NAME":"STARLINK-1510","ELEMENT_SET_NO":"999","REV_AT_EPOCH":"15810","EPHEMERIS_TYPE":"0","GP_ID":"230559477","TLE_LINE2":"2 45784  53.0519 241.9314 0001177  73.8856 286.2262 15.06419502158106","REF_FRAME":"TEME","MEAN_MOTION":"15.06419502","COUNTRY_CODE":"US","MEAN_MOTION_DOT":"0.00020403","PERIOD":"95.591","FILE":"3892071"},{"TIME_SYSTEM":"UTC","APOAPSIS":"548.006","PERIAPSIS":"546.305","RA_OF_ASC_NODE":"239.0284","EPOCH":"2023-04-22T17:35:56.789088","OBJECT_ID":"2020-038BH","MEAN_MOTION_DDOT":"0.0000000000000","RCS_SIZE":"LARGE","ECCENTRICITY":"0.00012280","INCLINATION":"53.0532","DECAY_DATE":null,"NORAD_CAT_ID":"45785","CLASSIFICATION_TYPE":"U","ARG_OF_PERICENTER":"192.4067","BSTAR":"0.00185130000000","SITE":"AFETR","MEAN_ANOMALY":"167.6892","MEAN_ELEMENT_THEORY":"SGP4","MEAN_MOTION":"15.06418908","FILE":"3892285","COUNTRY_CODE":"US","PERIOD":"95.591","MEAN_MOTION_DOT":"0.00027415","REV_AT_EPOCH":"15820","EPHEMERIS_TYPE":"0","REF_FRAME":"TEME","TLE_LINE2":"2 45785  53.0532 239.0284 0001228 192.4067 167.6892 15.06418908158206","GP_ID":"230592140","OBJECT_NAME":"STARLINK-1512","SEMIMAJOR_AXIS":"6925.291","TLE_LINE1":"1 45785U 20038BH  23112.73329617  .00027415  00000-0  18513-2 0  9998","ELEMENT_SET_NO":"999","OBJECT_TYPE":"PAYLOAD","LAUNCH_DATE":"2020-06-13","CENTER_NAME":"EARTH"},{"MEAN_ANOMALY":"262.4309","MEAN_ELEMENT_THEORY":"SGP4","BSTAR":"0.00143070000000","SITE":"AFETR","ARG_OF_PERICENTER":"97.6814","CLASSIFICATION_TYPE":"U","INCLINATION":"53.0530","DECAY_DATE":null,"NORAD_CAT_ID":"45786","ECCENTRICITY":"0.00011760","MEAN_MOTION_DDOT":"0.0000000000000","RCS_SIZE":"LARGE","OBJECT_ID":"2020-038BJ","PERIAPSIS":"546.383","RA_OF_ASC_NODE":"239.3977","EPOCH":"2023-04-22T15:39:11.403648","TIME_SYSTEM":"UTC","APOAPSIS":"548.011","LAUNCH_DATE":"2020-06-13","CENTER_NAME":"EARTH","OBJECT_TYPE":"PAYLOAD","ELEMENT_SET_NO":"999","SEMIMAJOR_AXIS":"6925.332","TLE_LINE1":"1 45786U 20038BJ  23112.65221532  .00021096  00000-0  14307-2 0  9993","OBJECT_NAME":"STARLINK-1513","TLE_LINE2":"2 45786  53.0530 239.3977 0001176  97.6814 262.4309 15.06405389158199","GP_ID":"230591891","REF_FRAME":"TEME","REV_AT_EPOCH":"15819","EPHEMERIS_TYPE":"0","COUNTRY_CODE":"US","PERIOD":"95.592","MEAN_MOTION_DOT":"0.00021096","FILE":"3892285","MEAN_MOTION":"15.06405389"},{"TIME_SYSTEM":"UTC","APOAPSIS":"548.052","PERIAPSIS":"546.308","EPOCH":"2023-04-22T20:36:25.265664","RA_OF_ASC_NODE":"238.4695","MEAN_MOTION_DDOT":"0.0000000000000","RCS_SIZE":"LARGE","OBJECT_ID":"2020-038BK","DECAY_DATE":null,"INCLINATION":"53.0533","NORAD_CAT_ID":"45787","ECCENTRICITY":"0.00012590","CLASSIFICATION_TYPE":"U","ARG_OF_PERICENTER":"86.3228","MEAN_ANOMALY":"273.7905","MEAN_ELEMENT_THEORY":"SGP4","SITE":"AFETR","BSTAR":"0.00112570000000","MEAN_MOTION":"15.06410846","COUNTRY_CODE":"US","PERIOD":"95.591","MEAN_MOTION_DOT":"0.00016530","FILE":"3892285","REV_AT_EPOCH":"15822","EPHEMERIS_TYPE":"0","TLE_LINE2":"2 45787  53.0533 238.4695 0001259  86.3228 273.7905 15.06410846158221","GP_ID":"230590641","REF_FRAME":"TEME","SEMIMAJOR_AXIS":"6925.315","TLE_LINE1":"1 45787U 20038BK  23112.85862576  .00016530  00000-0  11257-2 0  9993","OBJECT_NAME":"STARLINK-1517","ELEMENT_SET_NO":"999","OBJECT_TYPE":"PAYLOAD","CENTER_NAME":"EARTH","LAUNCH_DATE":"2020-06-13"},{"BSTAR":"0.00164340000000","SITE":"AFETR","MEAN_ANOMALY":"300.2397","MEAN_ELEMENT_THEORY":"SGP4","ARG_OF_PERICENTER":"59.8732","CLASSIFICATION_TYPE":"U","ECCENTRICITY":"0.00014140","DECAY_DATE":null,"NORAD_CAT_ID":"46027","INCLINATION":"53.0505","OBJECT_ID":"2020-055A","MEAN_MOTION_DDOT":"0.0000000000000","RCS_SIZE":"LARGE","PERIAPSIS":"546.221","RA_OF_ASC_NODE":"169.7819","EPOCH":"2023-04-22T13:35:45.773664","TIME_SYSTEM":"UTC","APOAPSIS":"548.179","CENTER_NAME":"EARTH","LAUNCH_DATE":"2020-08-07","OBJECT_TYPE":"PAYLOAD","ELEMENT_SET_NO":"999","OBJECT_NAME":"STARLINK-1522","SEMIMAJOR_AXIS":"6925.335","TLE_LINE1":"1 46027U 20055A   23112.56650201  .00024285  00000-0  16434-2 0  9996","REF_FRAME":"TEME","TLE_LINE2":"2 46027  53.0505 169.7819 0001414  59.8732 300.2397 15.06404426150309","GP_ID":"230591412","REV_AT_EPOCH":"15030","EPHEMERIS_TYPE":"0","FILE":"3892285","COUNTRY_CODE":"US","PERIOD":"95.592","MEAN_MOTION_DOT":"0.00024285","MEAN_MOTION":"15.06404426"}];
